start=new Date('2022-10-13T00:00:00.000Z').valueOf();
sats=[{"MEAN_ELEMENT_THEORY":"SGP4","MEAN_ANOMALY":"331.2881","TLE_LINE1":"1 52663U 22053H   22285.61803716 -.00001213  00000-0 -58100-4 0  9992","OBJECT_ID":"2022-053H","RCS_SIZE":"MEDIUM","MEAN_MOTION_DDOT":"0.0000000000000","OBJECT_TYPE":"PAYLOAD","GP_ID":"214924173","EPOCH":"2022-10-12T14:49:58.410624","REF_FRAME":"TEME","MEAN_MOTION":"15.08837470","SEMIMAJOR_AXIS":"6917.888","PERIAPSIS":"538.008","LAUNCH_DATE":"2022-05-18","RA_OF_ASC_NODE":"338.9843","NORAD_CAT_ID":"52663","EPHEMERIS_TYPE":"0","ARG_OF_PERICENTER":"28.8251","OBJECT_NAME":"STARLINK-4037","SITE":"AFETR","TIME_SYSTEM":"UTC","ECCENTRICITY":"0.00025230","REV_AT_EPOCH":"2323","INCLINATION":"53.2176","CLASSIFICATION_TYPE":"U","ELEMENT_SET_NO":"999","BSTAR":"-0.00005810000000","TLE_LINE2":"2 52663  53.2176 338.9843 0002523  28.8251 331.2881 15.08837470 23233","DECAY_DATE":null,"APOAPSIS":"541.499","COUNTRY_CODE":"US","FILE":"3606891","CENTER_NAME":"EARTH","MEAN_MOTION_DOT":"-0.00001213","PERIOD":"95.438"},{"MEAN_ELEMENT_THEORY":"SGP4","MEAN_ANOMALY":"323.1053","RCS_SIZE":"MEDIUM","OBJECT_ID":"2022-053J","TLE_LINE1":"1 52664U 22053J   22285.62539893 -.00001877  00000-0 -99895-4 0  9998","MEAN_MOTION_DDOT":"0.0000000000000","GP_ID":"214924501","OBJECT_TYPE":"PAYLOAD","EPOCH":"2022-10-12T15:00:34.467552","REF_FRAME":"TEME","MEAN_MOTION":"15.08833390","PERIAPSIS":"538.305","SEMIMAJOR_AXIS":"6917.901","LAUNCH_DATE":"2022-05-18","RA_OF_ASC_NODE":"338.9492","EPHEMERIS_TYPE":"0","NORAD_CAT_ID":"52664","OBJECT_NAME":"STARLINK-4070","ARG_OF_PERICENTER":"37.0084","SITE":"AFETR","ECCENTRICITY":"0.00021120","TIME_SYSTEM":"UTC","REV_AT_EPOCH":"2323","INCLINATION":"53.2185","CLASSIFICATION_TYPE":"U","ELEMENT_SET_NO":"999","BSTAR":"-0.00009989500000","TLE_LINE2":"2 52664  53.2185 338.9492 0002112  37.0084 323.1053 15.08833390 23232","DECAY_DATE":null,"APOAPSIS":"541.227","COUNTRY_CODE":"US","FILE":"3606891","CENTER_NAME":"EARTH","MEAN_MOTION_DOT":"-0.00001877","PERIOD":"95.438"},{"COUNTRY_CODE":"US","FILE":"3606148","DECAY_DATE":null,"APOAPSIS":"541.362","MEAN_MOTION_DOT":"0.00000946","PERIOD":"95.438","CENTER_NAME":"EARTH","REV_AT_EPOCH":"2322","INCLINATION":"53.2183","SITE":"AFETR","TIME_SYSTEM":"UTC","ECCENTRICITY":"0.00022860","TLE_LINE2":"2 52665  53.2183 339.3328 0002286  43.8233 316.2940 15.08828602 23224","BSTAR":"0.00007755300000","CLASSIFICATION_TYPE":"U","ELEMENT_SET_NO":"999","SEMIMAJOR_AXIS":"6917.915","PERIAPSIS":"538.199","LAUNCH_DATE":"2022-05-18","MEAN_MOTION":"15.08828602","ARG_OF_PERICENTER":"43.8233","OBJECT_NAME":"STARLINK-4064","RA_OF_ASC_NODE":"339.3328","NORAD_CAT_ID":"52665","EPHEMERIS_TYPE":"0","OBJECT_ID":"2022-053K","TLE_LINE1":"1 52665U 22053K   22285.54075780  .00000946  00000-0  77553-4 0  9991","RCS_SIZE":"LARGE","MEAN_MOTION_DDOT":"0.0000000000000","MEAN_ELEMENT_THEORY":"SGP4","MEAN_ANOMALY":"316.2940","EPOCH":"2022-10-12T12:58:41.473920","REF_FRAME":"TEME","OBJECT_TYPE":"PAYLOAD","GP_ID":"214884610"},{"EPOCH":"2022-10-12T13:09:16.761888","REF_FRAME":"TEME","OBJECT_TYPE":"PAYLOAD","GP_ID":"214884353","TLE_LINE1":"1 52666U 22053L   22285.54811067  .00000126  00000-0  26030-4 0  9992","OBJECT_ID":"2022-053L","RCS_SIZE":"LARGE","MEAN_MOTION_DDOT":"0.0000000000000","MEAN_ELEMENT_THEORY":"SGP4","MEAN_ANOMALY":"321.4324","ARG_OF_PERICENTER":"38.6807","OBJECT_NAME":"STARLINK-4079","RA_OF_ASC_NODE":"339.2988","NORAD_CAT_ID":"52666","EPHEMERIS_TYPE":"0","SEMIMAJOR_AXIS":"6917.890","PERIAPSIS":"538.408","LAUNCH_DATE":"2022-05-18","MEAN_MOTION":"15.08836695","BSTAR":"0.00002603000000","TLE_LINE2":"2 52666  53.2176 339.2988 0001948  38.6807 321.4324 15.08836695 23226","CLASSIFICATION_TYPE":"U","ELEMENT_SET_NO":"999","REV_AT_EPOCH":"2322","INCLINATION":"53.2176","SITE":"AFETR","ECCENTRICITY":"0.00019480","TIME_SYSTEM":"UTC","MEAN_MOTION_DOT":"0.00000126","PERIOD":"95.438","CENTER_NAME":"EARTH","COUNTRY_CODE":"US","FILE":"3606148","DECAY_DATE":null,"APOAPSIS":"541.103"},{"SITE":"AFETR","ECCENTRICITY":"0.00017910","TIME_SYSTEM":"UTC","REV_AT_EPOCH":"2324","INCLINATION":"53.2190","CLASSIFICATION_TYPE":"U","ELEMENT_SET_NO":"999","BSTAR":"0.00005338600000","TLE_LINE2":"2 52667  53.2190 338.7529 0001791  50.0291 310.0858 15.08827286 23243","DECAY_DATE":null,"APOAPSIS":"541.023","COUNTRY_CODE":"US","FILE":"3606891","CENTER_NAME":"EARTH","MEAN_MOTION_DOT":"0.00000561","PERIOD":"95.438","MEAN_ELEMENT_THEORY":"SGP4","MEAN_ANOMALY":"310.0858","RCS_SIZE":"LARGE","OBJECT_ID":"2022-053M","TLE_LINE1":"1 52667U 22053M   22285.66956361  .00000561  00000-0  53386-4 0  9990","MEAN_MOTION_DDOT":"0.0000000000000","GP_ID":"214924591","OBJECT_TYPE":"PAYLOAD","EPOCH":"2022-10-12T16:04:10.295904","REF_FRAME":"TEME","MEAN_MOTION":"15.08827286","PERIAPSIS":"538.545","SEMIMAJOR_AXIS":"6917.919","LAUNCH_DATE":"2022-05-18","RA_OF_ASC_NODE":"338.7529","EPHEMERIS_TYPE":"0","NORAD_CAT_ID":"52667","OBJECT_NAME":"STARLINK-4076","ARG_OF_PERICENTER":"50.0291"},{"MEAN_MOTION_DDOT":"0.0000000000000","OBJECT_ID":"2022-053N","TLE_LINE1":"1 52668U 22053N   22285.61067669 -.00001090  00000-0 -50413-4 0  9998","RCS_SIZE":"LARGE","MEAN_ANOMALY":"322.6574","MEAN_ELEMENT_THEORY":"SGP4","REF_FRAME":"TEME","EPOCH":"2022-10-12T14:39:22.466016","OBJECT_TYPE":"PAYLOAD","GP_ID":"214924920","LAUNCH_DATE":"2022-05-18","SEMIMAJOR_AXIS":"6917.888","PERIAPSIS":"538.233","MEAN_MOTION":"15.08837389","ARG_OF_PERICENTER":"37.4571","OBJECT_NAME":"STARLINK-4067","NORAD_CAT_ID":"52668","EPHEMERIS_TYPE":"0","RA_OF_ASC_NODE":"339.0192","INCLINATION":"53.2184","REV_AT_EPOCH":"2323","ECCENTRICITY":"0.00021980","TIME_SYSTEM":"UTC","SITE":"AFETR","TLE_LINE2":"2 52668  53.2184 339.0192 0002198  37.4571 322.6574 15.08837389 23237","BSTAR":"-0.00005041300000","ELEMENT_SET_NO":"999","CLASSIFICATION_TYPE":"U","FILE":"3606891","COUNTRY_CODE":"US","APOAPSIS":"541.274","DECAY_DATE":null,"PERIOD":"95.438","MEAN_MOTION_DOT":"-0.00001090","CENTER_NAME":"EARTH"},{"DECAY_DATE":null,"APOAPSIS":"540.962","COUNTRY_CODE":"US","FILE":"3606148","CENTER_NAME":"EARTH","MEAN_MOTION_DOT":"0.00014619","PERIOD":"95.437","SITE":"AFETR","TIME_SYSTEM":"UTC","ECCENTRICITY":"0.00017970","REV_AT_EPOCH":"2320","INCLINATION":"53.2172","CLASSIFICATION_TYPE":"U","ELEMENT_SET_NO":"999","BSTAR":"0.00093448000000","TLE_LINE2":"2 52669  53.2172 339.6964 0001797  38.0942 322.0177 15.08848797 23206","MEAN_MOTION":"15.08848797","PERIAPSIS":"538.475","SEMIMAJOR_AXIS":"6917.854","LAUNCH_DATE":"2022-05-18","RA_OF_ASC_NODE":"339.6964","EPHEMERIS_TYPE":"0","NORAD_CAT_ID":"52669","OBJECT_NAME":"STARLINK-3972","ARG_OF_PERICENTER":"38.0942","MEAN_ELEMENT_THEORY":"SGP4","MEAN_ANOMALY":"322.0177","RCS_SIZE":"LARGE","TLE_LINE1":"1 52669U 22053P   22285.45980804  .00014619  00000-0  93448-3 0  9999","OBJECT_ID":"2022-053P","MEAN_MOTION_DDOT":"0.0000000000000","GP_ID":"214884192","OBJECT_TYPE":"PAYLOAD","EPOCH":"2022-10-12T11:02:07.414656","REF_FRAME":"TEME"},{"FILE":"3606891","COUNTRY_CODE":"US","APOAPSIS":"541.120","DECAY_DATE":null,"PERIOD":"95.437","MEAN_MOTION_DOT":"0.00019322","CENTER_NAME":"EARTH","INCLINATION":"53.2164","REV_AT_EPOCH":"2323","TIME_SYSTEM":"UTC","ECCENTRICITY":"0.00019990","SITE":"AFETR","BSTAR":"0.00122870000000","TLE_LINE2":"2 52670  53.2164 339.0307 0001999  34.6630 325.4492 15.08842840 23237","ELEMENT_SET_NO":"999","CLASSIFICATION_TYPE":"U","LAUNCH_DATE":"2022-05-18","PERIAPSIS":"538.354","SEMIMAJOR_AXIS":"6917.872","MEAN_MOTION":"15.08842840","OBJECT_NAME":"STARLINK-4075","ARG_OF_PERICENTER":"34.6630","EPHEMERIS_TYPE":"0","NORAD_CAT_ID":"52670","RA_OF_ASC_NODE":"339.0307","MEAN_MOTION_DDOT":"0.0000000000000","RCS_SIZE":"LARGE","OBJECT_ID":"2022-053Q","TLE_LINE1":"1 52670U 22053Q   22285.60795894  .00019322  00000-0  12287-2 0  9998","MEAN_ANOMALY":"325.4492","MEAN_ELEMENT_THEORY":"SGP4","REF_FRAME":"TEME","EPOCH":"2022-10-12T14:35:27.652416","GP_ID":"214925325","OBJECT_TYPE":"PAYLOAD"},{"APOAPSIS":"541.271","DECAY_DATE":null,"FILE":"3606891","COUNTRY_CODE":"US","CENTER_NAME":"EARTH","PERIOD":"95.438","MEAN_MOTION_DOT":"0.00000158","ECCENTRICITY":"0.00022010","TIME_SYSTEM":"UTC","SITE":"AFETR","INCLINATION":"53.2186","REV_AT_EPOCH":"2322","ELEMENT_SET_NO":"999","CLASSIFICATION_TYPE":"U","BSTAR":"0.00002804300000","TLE_LINE2":"2 52671  53.2186 339.1179 0002201  42.3157 317.8005 15.08839149 23229","MEAN_MOTION":"15.08839149","LAUNCH_DATE":"2022-05-18","SEMIMAJOR_AXIS":"6917.883","PERIAPSIS":"538.225","NORAD_CAT_ID":"52671","EPHEMERIS_TYPE":"0","RA_OF_ASC_NODE":"339.1179","ARG_OF_PERICENTER":"42.3157","OBJECT_NAME":"STARLINK-4071","MEAN_ANOMALY":"317.8005","MEAN_ELEMENT_THEORY":"SGP4","MEAN_MOTION_DDOT":"0.0000000000000","OBJECT_ID":"2022-053R","TLE_LINE1":"1 52671U 22053R   22285.58859517  .00000158  00000-0  28043-4 0  9995","RCS_SIZE":"LARGE","OBJECT_TYPE":"PAYLOAD","GP_ID":"214924174","REF_FRAME":"TEME","EPOCH":"2022-10-12T14:07:34.622688"},{"OBJECT_TYPE":"PAYLOAD","GP_ID":"214884934","REF_FRAME":"TEME","EPOCH":"2022-10-12T12:48:05.320224","MEAN_ANOMALY":"321.7581","MEAN_ELEMENT_THEORY":"SGP4","MEAN_MOTION_DDOT":"0.0000000000000","OBJECT_ID":"2022-053S","TLE_LINE1":"1 52672U 22053S   22285.53339491  .00000514  00000-0  50396-4 0  9997","RCS_SIZE":"LARGE","NORAD_CAT_ID":"52672","EPHEMERIS_TYPE":"0","RA_OF_ASC_NODE":"339.3632","ARG_OF_PERICENTER":"38.3553","OBJECT_NAME":"STARLINK-4073","MEAN_MOTION":"15.08841276","LAUNCH_DATE":"2022-05-18","SEMIMAJOR_AXIS":"6917.876","PERIAPSIS":"538.357","ELEMENT_SET_NO":"999","CLASSIFICATION_TYPE":"U","BSTAR":"0.00005039600000","TLE_LINE2":"2 52672  53.2187 339.3632 0002002  38.3553 321.7581 15.08841276 23217","TIME_SYSTEM":"UTC","ECCENTRICITY":"0.00020020","SITE":"AFETR","INCLINATION":"53.2187","REV_AT_EPOCH":"2321","CENTER_NAME":"EARTH","PERIOD":"95.437","MEAN_MOTION_DOT":"0.00000514","APOAPSIS":"541.126","DECAY_DATE":null,"FILE":"3606148","COUNTRY_CODE":"US"}];
